JCSAT-18 (KACIFIC 1)    
1 44868U 19091A   26190.18933765 -.00000187  00000+0  00000+0 0  9995
2 44868   0.0444 228.0339 0000465 358.5740 278.6805  1.00271629 24233
ELEKTRO-L 3             
1 44903U 19095A   26190.17128253 -.00000083  00000+0  00000+0 0  9991
2 44903   0.3099  82.1600 0001381  17.4464 325.1618  1.00271698 23925
SHIJIAN-20 (SJ-20)      
1 44910U 19097A   26189.29445780  .00000147  00000+0  00000+0 0  9999
2 44910   4.9692  74.8039 0015306  56.1364 306.1987  1.00266138 23917
TJS-5                   
1 44978U 20002A   26189.54657348 -.00000328  00000+0  00000+0 0  9996
2 44978   0.0459  71.4542 0007952 343.6092 175.7180  1.00272039 23924
GSAT-30                 
1 45026U 20005A   26190.15758928 -.00000151  00000+0  00000+0 0  9993
2 45026   0.0323  93.8284 0003224 359.6222 333.3902  1.00269734 23720
EUTELSAT KONNECT        
1 45027U 20005B   26189.35836316  .00000064  00000+0  00000+0 0  9994
2 45027   0.0673  93.9251 0002048 138.2788 190.3345  1.00268676 24542
JCSAT-17                
1 45245U 20013A   26190.31064634 -.00000303  00000+0  00000+0 0  9996
2 45245   5.3920 357.0640 0002920 124.5629  53.4785  1.00271686 23455
GEO-KOMPSAT-2B          
1 45246U 20013B   26190.29558601 -.00000330  00000+0  00000+0 0  9996
2 45246   0.0476 234.7483 0000867   3.9254 283.2255  1.00269338 23504
BEIDOU-3 G2             
1 45344U 20017A   26190.01439480 -.00000129  00000+0  00000+0 0  9998
2 45344   2.9054  47.6391 0002272  56.0849 268.4866  1.00270249 23478
AEHF-6 (USA 298)        
1 45465U 20022B   26190.31090634 -.00000282  00000+0  00000+0 0  9995
2 45465   2.5018 301.4084 0042016  15.5614 219.9541  1.00273741 23233
BEIDOU-3 G3             
1 45807U 20040A   26190.30561965 -.00000342  00000+0  00000+0 0  9991
2 45807   2.4980  67.4798 0001928 331.5604 108.7363  1.00267301 22295
APSTAR-6D               
1 45863U 20045A   26189.68076803 -.00000302  00000+0  00000+0 0  9995
2 45863   0.0387  82.1879 0002868  18.0674 205.4960  1.00282578 22071
KOREASAT 116            
1 45920U 20048A   26190.30674633 -.00000348  00000+0  00000+0 0  9998
2 45920   0.0157  21.8162 0000821  88.9697  43.1126  1.00269889 21860
EXPRESS 103             
1 45985U 20053A   26190.09003042 -.00000267  00000+0  00000+0 0  9991
2 45985   0.0281 259.9312 0001556 225.2695 290.7515  1.00272078 21866
EXPRESS 80              
1 45986U 20053B   26189.98082288  .00000000  00000+0  00000+0 0  9991
2 45986   0.0196  22.5348 0001798 179.4102 158.0473  1.00270102 21849
BSAT-4B                 
1 46112U 20056A   26189.87769223 -.00000336  00000+0  00000+0 0  9998
2 46112   0.0449 197.4137 0004166 290.9441 224.2682  1.00271664 21603
MEV-2                   
1 46113U 20056B   26190.29975376  .00000002  00000+0  00000+0 0  9994
2 46113   0.0491 261.8304 0000320   4.0600 128.2578  1.00266932 80897
GALAXY 30 (G-30)        
1 46114U 20056C   26190.04507495  .00000051  00000+0  00000+0 0  9995
2 46114   0.0134  57.9594 0002051  51.8258  68.4325  1.00270770 21513
GAOFEN-13 01            
1 46610U 20071A   26190.30700633 -.00000349  00000+0  00000+0 0  9992
2 46610   0.4520  86.2389 0045137 120.3217 309.4788  1.00268928 21145
TIANTONG-1 2            
1 46916U 20082A   26190.30847966 -.00000342  00000+0  00000+0 0  9997
2 46916   0.7649 330.6919 0001399 136.6155  55.9452  1.00269810 20878
LUCAS (JDRS-1)          
1 47202U 20089A   26190.21780937 -.00000222  00000+0  00000+0 0  9994
2 47202   0.0439 270.8112 0001731 188.5506 357.0073  1.00272518 20642
SXM-7                   
1 47240U 20096A   26190.26681148 -.00000191  00000+0  00000+0 0  9998
2 47240   0.0269  99.7235 0003649  24.1356 174.2401  1.00269932  7664
CMS-01                  
1 47256U 20099A   26190.10669520 -.00000151  00000+0  00000+0 0  9997
2 47256   0.0589  92.1240 0003342 176.8483 139.4798  1.00271908 20411
TURKSAT 5A              
1 47306U 21001A   26190.10322653  .00000168  00000+0  00000+0 0  9997
2 47306   0.0177  68.9228 0000236 185.2207 100.9908  1.00271799 20182
TIANTONG-1 3            
1 47321U 21003A   26190.15724262 -.00000140  00000+0  00000+0 0  9994
2 47321   1.7397 340.6146 0003283 135.1741 309.4702  1.00271687 20186
TJS-6                   
1 47613U 21010A   26190.24774741  .00000056  00000+0  00000+0 0  9998
2 47613   0.1966 262.3461 0003221 235.0546  57.4331  1.00271465 20025
SBIRS GEO-5 (USA 315)   
1 48618U 21042A   26190.30223964 -.00000252  00000+0  00000+0 0  9991
2 48618   5.0767 329.2781 0001508 151.1337   9.4493  1.00270797 18990
FENGYUN 4B              
1 48808U 21047A   26190.11364130 -.00000315  00000+0  00000+0 0  9997
2 48808   0.2044  79.5137 0005682 274.1360  78.9598  1.00265877 18782
SXM-8                   
1 48838U 21049A   26190.26681148 -.00000192  00000+0  00000+0 0  9992
2 48838   0.0152  35.0459 0005325 357.0415 266.0285  1.00270719 18800
TIANLIAN 1-05           
1 49011U 21063A   26190.28700492  .00000120  00000+0  00000+0 0  9998
2 49011   1.6476  80.5182 0000879  80.2343 246.6437  1.00271647 18299
STAR ONE D2             
1 49055U 21069A   26189.48567000  .00000000  00000+0  00000+0 0  9995
2 49055   0.0149  25.4684 0002163  96.6518 269.0605  1.00265878 18155
EUTELSAT QUANTUM        
1 49056U 21069B   26190.22189354  .00000140  00000+0  00000+0 0  9997
2 49056   0.0285 302.0029 0002024 162.0398 310.7110  1.00268097 18144
