OBJECT_NAME,OBJECT_ID,EPOCH,MEAN_MOTION,ECCENTRICITY,INCLINATION,RA_OF_ASC_NODE,ARG_OF_PERICENTER,MEAN_ANOMALY,EPHEMERIS_TYPE,CLASSIFICATION_TYPE,NORAD_CAT_ID,ELEMENT_SET_NO,REV_AT_EPOCH,BSTAR,MEAN_MOTION_DOT,MEAN_MOTION_DDOT
JCSAT-18 (KACIFIC 1),2019-091A,2026-07-09T04:32:38.772960,1.00271629,.00004651,0.0444,228.0339,358.5740,278.6805,0,U,44868,999,2423,0,-.187E-5,0
ELEKTRO-L 3,2019-095A,2026-07-09T04:06:38.810592,1.00271698,.00013819,0.3099,82.1600,17.4464,325.1618,0,U,44903,999,2392,0,-.83E-6,0
SHIJIAN-20 (SJ-20),2019-097A,2026-07-08T07:04:01.153920,1.00266138,.0015306,4.9692,74.8039,56.1364,306.1987,0,U,44910,999,2391,0,.147E-5,0
TJS-5,2020-002A,2026-07-08T13:07:03.948672,1.00272039,.0007952,0.0459,71.4542,343.6092,175.7180,0,U,44978,999,2392,0,-.328E-5,0
GSAT-30,2020-005A,2026-07-09T03:46:55.713792,1.00269734,.00032249,0.0323,93.8284,359.6222,333.3902,0,U,45026,999,2372,0,-.151E-5,0
EUTELSAT KONNECT,2020-005B,2026-07-08T08:36:02.577024,1.00268676,.00020485,0.0673,93.9251,138.2788,190.3345,0,U,45027,999,2454,0,.64E-6,0
JCSAT-17,2020-013A,2026-07-09T07:27:19.843776,1.00271686,.00029207,5.3920,357.0640,124.5629,53.4785,0,U,45245,999,2345,0,-.303E-5,0
GEO-KOMPSAT-2B,2020-013B,2026-07-09T07:05:38.631264,1.00269338,.00008675,0.0476,234.7483,3.9254,283.2255,0,U,45246,999,2350,0,-.33E-5,0
BEIDOU-3 G2,2020-017A,2026-07-09T00:20:43.710720,1.00270249,.00022727,2.9054,47.6391,56.0849,268.4866,0,U,45344,999,2347,0,-.129E-5,0
AEHF-6 (USA 298),2020-022B,2026-07-09T07:27:42.307776,1.00273741,.00420168,2.5018,301.4084,15.5614,219.9541,0,U,45465,999,2323,0,-.282E-5,0
BEIDOU-3 G3,2020-040A,2026-07-09T07:20:05.537760,1.00267301,.00019286,2.4980,67.4798,331.5604,108.7363,0,U,45807,999,2229,0,-.342E-5,0
APSTAR-6D,2020-045A,2026-07-08T16:20:18.357792,1.00282578,.00028685,0.0387,82.1879,18.0674,205.4960,0,U,45863,999,2207,0,-.302E-5,0
KOREASAT 116,2020-048A,2026-07-09T07:21:42.882912,1.00269889,.00008214,0.0157,21.8162,88.9697,43.1126,0,U,45920,999,2186,0,-.348E-5,0
EXPRESS 103,2020-053A,2026-07-09T02:09:38.628288,1.00272078,.00015563,0.0281,259.9312,225.2695,290.7515,0,U,45985,999,2186,0,-.267E-5,0
EXPRESS 80,2020-053B,2026-07-08T23:32:23.096832,1.00270102,.00017987,0.0196,22.5348,179.4102,158.0473,0,U,45986,999,2184,0,0,0
BSAT-4B,2020-056A,2026-07-08T21:03:52.608672,1.00271664,.00041664,0.0449,197.4137,290.9441,224.2682,0,U,46112,999,2160,0,-.336E-5,0
MEV-2,2020-056B,2026-07-09T07:11:38.724864,1.00266932,.00003209,0.0491,261.8304,4.0600,128.2578,0,U,46113,999,8089,0,.2E-7,0
GALAXY 30 (G-30),2020-056C,2026-07-09T01:04:54.475680,1.00270770,.0002051,0.0134,57.9594,51.8258,68.4325,0,U,46114,999,2151,0,.51E-6,0
GAOFEN-13 01,2020-071A,2026-07-09T07:22:05.346912,1.00268928,.00451373,0.4520,86.2389,120.3217,309.4788,0,U,46610,999,2114,0,-.349E-5,0
TIANTONG-1 2,2020-082A,2026-07-09T07:24:12.642624,1.00269810,.00013993,0.7649,330.6919,136.6155,55.9452,0,U,46916,999,2087,0,-.342E-5,0
LUCAS (JDRS-1),2020-089A,2026-07-09T05:13:38.729568,1.00272518,.00017311,0.0439,270.8112,188.5506,357.0073,0,U,47202,999,2064,0,-.222E-5,0
SXM-7,2020-096A,2026-07-09T06:24:12.511872,1.00269932,.0003649,0.0269,99.7235,24.1356,174.2401,0,U,47240,999,766,0,-.191E-5,0
CMS-01,2020-099A,2026-07-09T02:33:38.465280,1.00271908,.00033424,0.0589,92.1240,176.8483,139.4798,0,U,47256,999,2041,0,-.151E-5,0
TURKSAT 5A,2021-001A,2026-07-09T02:28:38.772192,1.00271799,.00002366,0.0177,68.9228,185.2207,100.9908,0,U,47306,999,2018,0,.168E-5,0
TIANTONG-1 3,2021-003A,2026-07-09T03:46:25.762368,1.00271687,.00032832,1.7397,340.6146,135.1741,309.4702,0,U,47321,999,2018,0,-.14E-5,0
TJS-6,2021-010A,2026-07-09T05:56:45.376224,1.00271465,.00032217,0.1966,262.3461,235.0546,57.4331,0,U,47613,999,2002,0,.56E-6,0
SBIRS GEO-5 (USA 315),2021-042A,2026-07-09T07:15:13.504896,1.00270797,.00015085,5.0767,329.2781,151.1337,9.4493,0,U,48618,999,1899,0,-.252E-5,0
FENGYUN 4B,2021-047A,2026-07-09T02:43:38.608320,1.00265877,.00056821,0.2044,79.5137,274.1360,78.9598,0,U,48808,999,1878,0,-.315E-5,0
SXM-8,2021-049A,2026-07-09T06:24:12.511872,1.00270719,.00053252,0.0152,35.0459,357.0415,266.0285,0,U,48838,999,1880,0,-.192E-5,0
TIANLIAN 1-05,2021-063A,2026-07-09T06:53:17.225088,1.00271647,.00008799,1.6476,80.5182,80.2343,246.6437,0,U,49011,999,1829,0,.12E-5,0
STAR ONE D2,2021-069A,2026-07-08T11:39:21.888000,1.00265878,.00021637,0.0149,25.4684,96.6518,269.0605,0,U,49055,999,1815,0,0,0
EUTELSAT QUANTUM,2021-069B,2026-07-09T05:19:31.601856,1.00268097,.00020247,0.0285,302.0029,162.0398,310.7110,0,U,49056,999,1814,0,.14E-5,0
